CCSDS_OMM_VERS = 2.0
CREATION_DATE  = 
ORIGINATOR     = 

OBJECT_NAME    = SL-4 R/B
OBJECT_ID      = 2014-021B
CENTER_NAME    = EARTH
REF_FRAME      = TEME
TIME_SYSTEM    = UTC
MEAN_ELEMENT_THEORY = SGP/SGP4

EPOCH          = 2026-01-21T12:47:06.476640
MEAN_MOTION    = 15.37694795
ECCENTRICITY   = .0099124
INCLINATION    = 51.6055
RA_OF_ASC_NODE = 207.0610
ARG_OF_PERICENTER = 290.8354
MEAN_ANOMALY   = 68.2035

EPHEMERIS_TYPE = 0
CLASSIFICATION_TYPE = U
NORAD_CAT_ID   = 39679
ELEMENT_SET_NO = 999
REV_AT_EPOCH   = 64901
BSTAR          = .40221E-3
MEAN_MOTION_DOT = .1749E-3
MEAN_MOTION_DDOT = 0

CCSDS_OMM_VERS = 2.0
CREATION_DATE  = 
ORIGINATOR     = 

OBJECT_NAME    = ALOS-2
OBJECT_ID      = 2014-029A
CENTER_NAME    = EARTH
REF_FRAME      = TEME
TIME_SYSTEM    = UTC
MEAN_ELEMENT_THEORY = SGP/SGP4

EPOCH          = 2026-01-21T12:16:02.285184
MEAN_MOTION    = 14.79481868
ECCENTRICITY   = .0001388
INCLINATION    = 97.9204
RA_OF_ASC_NODE = 120.7868
ARG_OF_PERICENTER = 99.3057
MEAN_ANOMALY   = 260.8312

EPHEMERIS_TYPE = 0
CLASSIFICATION_TYPE = U
NORAD_CAT_ID   = 39766
ELEMENT_SET_NO = 999
REV_AT_EPOCH   = 62989
BSTAR          = .27121E-3
MEAN_MOTION_DOT = .1975E-4
MEAN_MOTION_DDOT = 0

CCSDS_OMM_VERS = 2.0
CREATION_DATE  = 
ORIGINATOR     = 

OBJECT_NAME    = YAOGAN-29
OBJECT_ID      = 2015-069A
CENTER_NAME    = EARTH
REF_FRAME      = TEME
TIME_SYSTEM    = UTC
MEAN_ELEMENT_THEORY = SGP/SGP4

EPOCH          = 2026-01-21T13:30:49.432032
MEAN_MOTION    = 14.82935818
ECCENTRICITY   = .0002602
INCLINATION    = 98.0184
RA_OF_ASC_NODE = 49.8571
ARG_OF_PERICENTER = 115.8613
MEAN_ANOMALY   = 244.2869

EPHEMERIS_TYPE = 0
CLASSIFICATION_TYPE = U
NORAD_CAT_ID   = 41038
ELEMENT_SET_NO = 999
REV_AT_EPOCH   = 54889
BSTAR          = .22585E-3
MEAN_MOTION_DOT = .1778E-4
MEAN_MOTION_DDOT = 0

CCSDS_OMM_VERS = 2.0
CREATION_DATE  = 
ORIGINATOR     = 

OBJECT_NAME    = ASTRO-H (HITOMI)
OBJECT_ID      = 2016-012A
CENTER_NAME    = EARTH
REF_FRAME      = TEME
TIME_SYSTEM    = UTC
MEAN_ELEMENT_THEORY = SGP/SGP4

EPOCH          = 2026-01-20T21:39:16.851168
MEAN_MOTION    = 15.09635245
ECCENTRICITY   = .00098646
INCLINATION    = 31.0008
RA_OF_ASC_NODE = 304.8490
ARG_OF_PERICENTER = 213.6911
MEAN_ANOMALY   = 146.3100

EPHEMERIS_TYPE = 0
CLASSIFICATION_TYPE = U
NORAD_CAT_ID   = 41337
ELEMENT_SET_NO = 999
REV_AT_EPOCH   = 54500
BSTAR          = .3566552E-3
MEAN_MOTION_DOT = .598E-4
MEAN_MOTION_DDOT = 0

CCSDS_OMM_VERS = 2.0
CREATION_DATE  = 
ORIGINATOR     = 

OBJECT_NAME    = HXMT (HUIYAN)
OBJECT_ID      = 2017-034A
CENTER_NAME    = EARTH
REF_FRAME      = TEME
TIME_SYSTEM    = UTC
MEAN_ELEMENT_THEORY = SGP/SGP4

EPOCH          = 2026-01-21T10:35:04.381152
MEAN_MOTION    = 15.16816691
ECCENTRICITY   = .0033292
INCLINATION    = 43.0141
RA_OF_ASC_NODE = 279.2316
ARG_OF_PERICENTER = 294.7904
MEAN_ANOMALY   = 64.9482

EPHEMERIS_TYPE = 0
CLASSIFICATION_TYPE = U
NORAD_CAT_ID   = 42758
ELEMENT_SET_NO = 999
REV_AT_EPOCH   = 47536
BSTAR          = .62067E-3
MEAN_MOTION_DOT = .12381E-3
MEAN_MOTION_DDOT = 0

CCSDS_OMM_VERS = 2.0
CREATION_DATE  = 
ORIGINATOR     = 

OBJECT_NAME    = CZ-2C R/B
OBJECT_ID      = 2018-054D
CENTER_NAME    = EARTH
REF_FRAME      = TEME
TIME_SYSTEM    = UTC
MEAN_ELEMENT_THEORY = SGP/SGP4

EPOCH          = 2026-01-21T08:54:14.512320
MEAN_MOTION    = 15.85757755
ECCENTRICITY   = .0011901
INCLINATION    = 35.1320
RA_OF_ASC_NODE = 270.1081
ARG_OF_PERICENTER = 202.0789
MEAN_ANOMALY   = 157.9436

EPHEMERIS_TYPE = 0
CLASSIFICATION_TYPE = U
NORAD_CAT_ID   = 43521
ELEMENT_SET_NO = 999
REV_AT_EPOCH   = 42132
BSTAR          = .98023E-3
MEAN_MOTION_DOT = .25725E-2
MEAN_MOTION_DDOT = 0

CCSDS_OMM_VERS = 2.0
CREATION_DATE  = 
ORIGINATOR     = 

OBJECT_NAME    = SAOCOM 1A
OBJECT_ID      = 2018-076A
CENTER_NAME    = EARTH
REF_FRAME      = TEME
TIME_SYSTEM    = UTC
MEAN_ELEMENT_THEORY = SGP/SGP4

EPOCH          = 2026-01-21T12:04:29.942112
MEAN_MOTION    = 14.82160103
ECCENTRICITY   = .0001525
INCLINATION    = 97.8851
RA_OF_ASC_NODE = 210.3475
ARG_OF_PERICENTER = 85.1632
MEAN_ANOMALY   = 274.9756

EPHEMERIS_TYPE = 0
CLASSIFICATION_TYPE = U
NORAD_CAT_ID   = 43641
ELEMENT_SET_NO = 999
REV_AT_EPOCH   = 39437
BSTAR          = .17144E-3
MEAN_MOTION_DOT = .1313E-4
MEAN_MOTION_DDOT = 0

CCSDS_OMM_VERS = 2.0
CREATION_DATE  = 
ORIGINATOR     = 

OBJECT_NAME    = H-2A R/B
OBJECT_ID      = 2018-084L
CENTER_NAME    = EARTH
REF_FRAME      = TEME
TIME_SYSTEM    = UTC
MEAN_ELEMENT_THEORY = SGP/SGP4

EPOCH          = 2026-01-21T12:05:32.683200
MEAN_MOTION    = 15.39133987
ECCENTRICITY   = .0025993
INCLINATION    = 98.8754
RA_OF_ASC_NODE = 228.8823
ARG_OF_PERICENTER = 185.8177
MEAN_ANOMALY   = 174.2766

EPHEMERIS_TYPE = 0
CLASSIFICATION_TYPE = U
NORAD_CAT_ID   = 43682
ELEMENT_SET_NO = 999
REV_AT_EPOCH   = 39851
BSTAR          = .75572E-3
MEAN_MOTION_DOT = .29626E-3
MEAN_MOTION_DDOT = 0

CCSDS_OMM_VERS = 2.0
CREATION_DATE  = 
ORIGINATOR     = 

OBJECT_NAME    = SAOCOM 1B
OBJECT_ID      = 2020-059A
CENTER_NAME    = EARTH
REF_FRAME      = TEME
TIME_SYSTEM    = UTC
MEAN_ELEMENT_THEORY = SGP/SGP4

EPOCH          = 2026-01-21T11:12:12.784032
MEAN_MOTION    = 14.82158781
ECCENTRICITY   = .0001324
INCLINATION    = 97.8846
RA_OF_ASC_NODE = 209.4105
ARG_OF_PERICENTER = 90.1547
MEAN_ANOMALY   = 269.9818

EPHEMERIS_TYPE = 0
CLASSIFICATION_TYPE = U
NORAD_CAT_ID   = 46265
ELEMENT_SET_NO = 999
REV_AT_EPOCH   = 29175
BSTAR          = .16481E-3
MEAN_MOTION_DOT = .126E-4
MEAN_MOTION_DDOT = 0

CCSDS_OMM_VERS = 2.0
CREATION_DATE  = 
ORIGINATOR     = 

OBJECT_NAME    = CSS (TIANHE)
OBJECT_ID      = 2021-035A
CENTER_NAME    = EARTH
REF_FRAME      = TEME
TIME_SYSTEM    = UTC
MEAN_ELEMENT_THEORY = SGP/SGP4

EPOCH          = 2026-01-21T08:13:22.392192
MEAN_MOTION    = 15.60837441
ECCENTRICITY   = .0010636
INCLINATION    = 41.4670
RA_OF_ASC_NODE = 135.9803
ARG_OF_PERICENTER = 328.9638
MEAN_ANOMALY   = 31.0572

EPHEMERIS_TYPE = 0
CLASSIFICATION_TYPE = U
NORAD_CAT_ID   = 48274
ELEMENT_SET_NO = 999
REV_AT_EPOCH   = 27021
BSTAR          = .39794E-3
MEAN_MOTION_DOT = .34073E-3
MEAN_MOTION_DDOT = 0

CCSDS_OMM_VERS = 2.0
CREATION_DATE  = 
ORIGINATOR     = 

OBJECT_NAME    = COSMOS 2550
OBJECT_ID      = 2021-056A
CENTER_NAME    = EARTH
REF_FRAME      = TEME
TIME_SYSTEM    = UTC
MEAN_ELEMENT_THEORY = SGP/SGP4

EPOCH          = 2026-01-21T13:37:44.260032
MEAN_MOTION    = 15.33833570
ECCENTRICITY   = .0008361
INCLINATION    = 67.1412
RA_OF_ASC_NODE = 183.4638
ARG_OF_PERICENTER = 269.3496
MEAN_ANOMALY   = 90.6701

EPHEMERIS_TYPE = 0
CLASSIFICATION_TYPE = U
NORAD_CAT_ID   = 48865
ELEMENT_SET_NO = 999
REV_AT_EPOCH   = 25623
BSTAR          = -.53395E-6
MEAN_MOTION_DOT = -.209E-5
MEAN_MOTION_DDOT = 0

CCSDS_OMM_VERS = 2.0
CREATION_DATE  = 
ORIGINATOR     = 

OBJECT_NAME    = CZ-2C R/B
OBJECT_ID      = 2022-058K
CENTER_NAME    = EARTH
REF_FRAME      = TEME
TIME_SYSTEM    = UTC
MEAN_ELEMENT_THEORY = SGP/SGP4

EPOCH          = 2026-01-21T11:07:29.362656
MEAN_MOTION    = 15.50891957
ECCENTRICITY   = .0042612
INCLINATION    = 50.1887
RA_OF_ASC_NODE = 200.6113
ARG_OF_PERICENTER = 1.7692
MEAN_ANOMALY   = 358.3420

EPHEMERIS_TYPE = 0
CLASSIFICATION_TYPE = U
NORAD_CAT_ID   = 52794
ELEMENT_SET_NO = 999
REV_AT_EPOCH   = 20279
BSTAR          = .66215E-3
MEAN_MOTION_DOT = .40273E-3
MEAN_MOTION_DDOT = 0

