SL-4 R/B                
1 39679U 14021B   26021.53271385  .00017490  00000+0  40221-3 0  9999
2 39679  51.6055 207.0610 0099124 290.8354  68.2035 15.37694795649010
ALOS-2                  
1 39766U 14029A   26021.51113756  .00001975  00000+0  27121-3 0  9994
2 39766  97.9204 120.7868 0001388  99.3057 260.8312 14.79481868629891
YAOGAN-29               
1 41038U 15069A   26021.56307213  .00001778  00000+0  22585-3 0  9992
2 41038  98.0184  49.8571 0002602 115.8613 244.2869 14.82935818548895
ASTRO-H (HITOMI)        
1 41337U 16012A   26020.90227837  .00005980  00000+0  35666-3 0  9996
2 41337  31.0008 304.8490 0009864 213.6911 146.3100 15.09635245545009
HXMT (HUIYAN)           
1 42758U 17034A   26021.44102293  .00012381  00000+0  62067-3 0  9995
2 42758  43.0141 279.2316 0033292 294.7904  64.9482 15.16816691475367
CZ-2C R/B               
1 43521U 18054D   26021.37100130  .00257250  00000+0  98023-3 0  9994
2 43521  35.1320 270.1081 0011901 202.0789 157.9436 15.85757755421322
SAOCOM 1A               
1 43641U 18076A   26021.50312433  .00001313  00000+0  17144-3 0  9999
2 43641  97.8851 210.3475 0001525  85.1632 274.9756 14.82160103394370
H-2A R/B                
1 43682U 18084L   26021.50385050  .00029626  00000+0  75572-3 0  9994
2 43682  98.8754 228.8823 0025993 185.8177 174.2766 15.39133987398512
SAOCOM 1B               
1 46265U 20059A   26021.46681463  .00001260  00000+0  16481-3 0  9999
2 46265  97.8846 209.4105 0001324  90.1547 269.9818 14.82158781291756
CSS (TIANHE)            
1 48274U 21035A   26021.34262028  .00034073  00000+0  39794-3 0  9995
2 48274  41.4670 135.9803 0010636 328.9638  31.0572 15.60837441270212
COSMOS 2550             
1 48865U 21056A   26021.56787338 -.00000209  00000+0 -53395-6 0  9996
2 48865  67.1412 183.4638 0008361 269.3496  90.6701 15.33833570256233
CZ-2C R/B               
1 52794U 22058K   26021.46353429  .00040273  00000+0  66215-3 0  9999
2 52794  50.1887 200.6113 0042612   1.7692 358.3420 15.50891957202796
